UMBRA-07                
1 58297U 23174AT  26199.72727662  .00003844  00000+0  24266-3 0  9995
2 58297  97.3769 254.3040 0001897   6.5862 353.5392 15.09651846148170
UMBRA-09                
1 60541U 24149CB  26199.82923301  .00007667  00000+0  37063-3 0  9998
2 60541  97.6967 287.5968 0002021 193.2721 166.8460 15.18912204105524
UMBRA-10                
1 60547U 24149CH  26199.82877713  .00007800  00000+0  37699-3 0  9993
2 60547  97.6969 287.6268 0001922 159.4270 200.7041 15.18912544105539
UMBRA-11                
1 66748U 25276CL  26199.76971708  .00010793  00000+0  39928-3 0  9998
2 66748  97.4180 274.2288 0002979 175.8536 184.2728 15.27861891 35319
UMBRA-12                
1 67371U 26004J   26199.74921347  .00002282  00000+0  24497-3 0  9992
2 67371  97.8028 198.0877 0007179  43.5822 316.5961 14.89548412 28005
