{"fetched_at":"2026-07-19T07:05:42.643Z","source":"https://celestrak.org/NORAD/elements/gp.php?NAME=UMBRA&FORMAT=JSON","constellation":"umbra","records":[{"OBJECT_NAME":"UMBRA-07","OBJECT_ID":"2023-174AT","EPOCH":"2026-07-18T17:27:16.699968","CLASSIFICATION_TYPE":"U","MEAN_MOTION":15.09651846,"ECCENTRICITY":0.0001897,"INCLINATION":97.3769,"RA_OF_ASC_NODE":254.304,"ARG_OF_PERICENTER":6.5862,"MEAN_ANOMALY":353.5392,"EPHEMERIS_TYPE":0,"NORAD_CAT_ID":58297,"ELEMENT_SET_NO":999,"REV_AT_EPOCH":14817,"BSTAR":0.00024266,"MEAN_MOTION_DOT":0.00003844,"MEAN_MOTION_DDOT":0},{"OBJECT_NAME":"UMBRA-09","OBJECT_ID":"2024-149CB","EPOCH":"2026-07-18T19:54:05.732064","CLASSIFICATION_TYPE":"U","MEAN_MOTION":15.18912204,"ECCENTRICITY":0.0002021,"INCLINATION":97.6967,"RA_OF_ASC_NODE":287.5968,"ARG_OF_PERICENTER":193.2721,"MEAN_ANOMALY":166.846,"EPHEMERIS_TYPE":0,"NORAD_CAT_ID":60541,"ELEMENT_SET_NO":999,"REV_AT_EPOCH":10552,"BSTAR":0.00037063,"MEAN_MOTION_DOT":0.00007667,"MEAN_MOTION_DDOT":0},{"OBJECT_NAME":"UMBRA-10","OBJECT_ID":"2024-149CH","EPOCH":"2026-07-18T19:53:26.344032","CLASSIFICATION_TYPE":"U","MEAN_MOTION":15.18912544,"ECCENTRICITY":0.0001922,"INCLINATION":97.6969,"RA_OF_ASC_NODE":287.6268,"ARG_OF_PERICENTER":159.427,"MEAN_ANOMALY":200.7041,"EPHEMERIS_TYPE":0,"NORAD_CAT_ID":60547,"ELEMENT_SET_NO":999,"REV_AT_EPOCH":10553,"BSTAR":0.00037699,"MEAN_MOTION_DOT":0.000078,"MEAN_MOTION_DDOT":0},{"OBJECT_NAME":"UMBRA-11","OBJECT_ID":"2025-276CL","EPOCH":"2026-07-18T18:28:23.555712","CLASSIFICATION_TYPE":"U","MEAN_MOTION":15.27861891,"ECCENTRICITY":0.0002979,"INCLINATION":97.418,"RA_OF_ASC_NODE":274.2288,"ARG_OF_PERICENTER":175.8536,"MEAN_ANOMALY":184.2728,"EPHEMERIS_TYPE":0,"NORAD_CAT_ID":66748,"ELEMENT_SET_NO":999,"REV_AT_EPOCH":3531,"BSTAR":0.00039928,"MEAN_MOTION_DOT":0.00010793,"MEAN_MOTION_DDOT":0},{"OBJECT_NAME":"UMBRA-12","OBJECT_ID":"2026-004J","EPOCH":"2026-07-18T17:58:52.043808","CLASSIFICATION_TYPE":"U","MEAN_MOTION":14.89548412,"ECCENTRICITY":0.0007179,"INCLINATION":97.8028,"RA_OF_ASC_NODE":198.0877,"ARG_OF_PERICENTER":43.5822,"MEAN_ANOMALY":316.5961,"EPHEMERIS_TYPE":0,"NORAD_CAT_ID":67371,"ELEMENT_SET_NO":999,"REV_AT_EPOCH":2800,"BSTAR":0.00024497,"MEAN_MOTION_DOT":0.00002282,"MEAN_MOTION_DDOT":0}]}
